{
  "links" : {
    "next" : "https://api.nasa.gov/neo/rest/v1/feed?start_date=1996-05-16&end_date=1996-05-16&detailed=true&api_key=t0TVs3DtDT2H8Oy2Zy8m2eVrNsAVKAexjcZXUckd",
    "prev" : "https://api.nasa.gov/neo/rest/v1/feed?start_date=1996-05-14&end_date=1996-05-14&detailed=true&api_key=t0TVs3DtDT2H8Oy2Zy8m2eVrNsAVKAexjcZXUckd",
    "self" : "https://api.nasa.gov/neo/rest/v1/feed?start_date=1996-05-15&end_date=1996-05-15&detailed=true&api_key=t0TVs3DtDT2H8Oy2Zy8m2eVrNsAVKAexjcZXUckd"
  },
  "element_count" : 4,
  "near_earth_objects" : {
    "1996-05-15" : [ {
      "links" : {
        "self" : "https://api.nasa.gov/neo/rest/v1/neo/2136818?api_key=t0TVs3DtDT2H8Oy2Zy8m2eVrNsAVKAexjcZXUckd"
      },
      "neo_reference_id" : "2136818",
      "name" : "136818 Selqet (1997 MW1)",
      "nasa_jpl_url" : "http://ssd.jpl.nasa.gov/sbdb.cgi?sstr=2136818",
      "absolute_magnitude_h" : 18.9,
      "estimated_diameter" : {
        "kilometers" : {
          "estimated_diameter_min" : 0.4411182,
          "estimated_diameter_max" : 0.9863702813
        },
        "meters" : {
          "estimated_diameter_min" : 441.1181999969,
          "estimated_diameter_max" : 986.3702813054
        },
        "miles" : {
          "estimated_diameter_min" : 0.2740980571,
          "estimated_diameter_max" : 0.6129018881
        },
        "feet" : {
          "estimated_diameter_min" : 1447.2382352778,
          "estimated_diameter_max" : 3236.1230737181
        }
      },
      "is_potentially_hazardous_asteroid" : false,
      "close_approach_data" : [ {
        "close_approach_date" : "1996-05-15",
        "epoch_date_close_approach" : 832143600000,
        "relative_velocity" : {
          "kilometers_per_second" : "14.8303269039",
          "kilometers_per_hour" : "53389.1768542132",
          "miles_per_hour" : "33173.9582514415"
        },
        "miss_distance" : {
          "astronomical" : "0.1932271295",
          "lunar" : "75.1653518677",
          "kilometers" : "28906368",
          "miles" : "17961584"
        },
        "orbiting_body" : "Earth"
      } ],
      "orbital_data" : {
        "orbit_id" : "97",
        "orbit_determination_date" : "2017-09-27 06:51:50",
        "orbit_uncertainty" : "0",
        "minimum_orbit_intersection" : ".113543",
        "jupiter_tisserand_invariant" : "6.326",
        "epoch_osculation" : "2458000.5",
        "eccentricity" : ".3462912345976584",
        "semi_major_axis" : ".9375804265711696",
        "inclination" : "12.77833710327869",
        "ascending_node_longitude" : "259.9517694521273",
        "orbital_period" : "331.5974828563657",
        "perihelion_distance" : ".6129045431192401",
        "perihelion_argument" : "203.7846993891176",
        "aphelion_distance" : "1.262256310023099",
        "perihelion_time" : "2458099.877786882534",
        "mean_anomaly" : "252.11014821482",
        "mean_motion" : "1.085653596942221",
        "equinox" : "J2000"
      }
    }, {
      "links" : {
        "self" : "https://api.nasa.gov/neo/rest/v1/neo/2390522?api_key=t0TVs3DtDT2H8Oy2Zy8m2eVrNsAVKAexjcZXUckd"
      },
      "neo_reference_id" : "2390522",
      "name" : "390522 (1996 GD1)",
      "nasa_jpl_url" : "http://ssd.jpl.nasa.gov/sbdb.cgi?sstr=2390522",
      "absolute_magnitude_h" : 20.6,
      "estimated_diameter" : {
        "kilometers" : {
          "estimated_diameter_min" : 0.2016299194,
          "estimated_diameter_max" : 0.4508582062
        },
        "meters" : {
          "estimated_diameter_min" : 201.6299194428,
          "estimated_diameter_max" : 450.8582061718
        },
        "miles" : {
          "estimated_diameter_min" : 0.1252869847,
          "estimated_diameter_max" : 0.2801502144
        },
        "feet" : {
          "estimated_diameter_min" : 661.5155049046,
          "estimated_diameter_max" : 1479.1936371367
        }
      },
      "is_potentially_hazardous_asteroid" : false,
      "close_approach_data" : [ {
        "close_approach_date" : "1996-05-15",
        "epoch_date_close_approach" : 832143600000,
        "relative_velocity" : {
          "kilometers_per_second" : "12.4277497463",
          "kilometers_per_hour" : "44739.8990865007",
          "miles_per_hour" : "27799.6334073871"
        },
        "miss_distance" : {
          "astronomical" : "0.1398163342",
          "lunar" : "54.3885536194",
          "kilometers" : "20916226",
          "miles" : "12996740"
        },
        "orbiting_body" : "Earth"
      } ],
      "orbital_data" : {
        "orbit_id" : "25",
        "orbit_determination_date" : "2017-04-06 09:22:02",
        "orbit_uncertainty" : "0",
        "minimum_orbit_intersection" : ".0594885",
        "jupiter_tisserand_invariant" : "5.235",
        "epoch_osculation" : "2458000.5",
        "eccentricity" : ".3526247107050769",
        "semi_major_axis" : "1.185952527342551",
        "inclination" : "18.384409137436",
        "ascending_node_longitude" : "38.10263240257667",
        "orbital_period" : "471.7363954686337",
        "perihelion_distance" : ".7677563604784292",
        "perihelion_argument" : "293.5937557510106",
        "aphelion_distance" : "1.604148694206673",
        "perihelion_time" : "2457843.283924138386",
        "mean_anomaly" : "119.9775719105909",
        "mean_motion" : ".7631380649406281",
        "equinox" : "J2000"
      }
    }, {
      "links" : {
        "self" : "https://api.nasa.gov/neo/rest/v1/neo/3120863?api_key=t0TVs3DtDT2H8Oy2Zy8m2eVrNsAVKAexjcZXUckd"
      },
      "neo_reference_id" : "3120863",
      "name" : "(2002 GQ)",
      "nasa_jpl_url" : "http://ssd.jpl.nasa.gov/sbdb.cgi?sstr=3120863",
      "absolute_magnitude_h" : 26.3,
      "estimated_diameter" : {
        "kilometers" : {
          "estimated_diameter_min" : 0.0146067964,
          "estimated_diameter_max" : 0.0326617897
        },
        "meters" : {
          "estimated_diameter_min" : 14.6067964271,
          "estimated_diameter_max" : 32.6617897446
        },
        "miles" : {
          "estimated_diameter_min" : 0.0090762397,
          "estimated_diameter_max" : 0.020295089
        },
        "feet" : {
          "estimated_diameter_min" : 47.92256199,
          "estimated_diameter_max" : 107.1581062656
        }
      },
      "is_potentially_hazardous_asteroid" : false,
      "close_approach_data" : [ {
        "close_approach_date" : "1996-05-15",
        "epoch_date_close_approach" : 832143600000,
        "relative_velocity" : {
          "kilometers_per_second" : "18.0081022198",
          "kilometers_per_hour" : "64829.167991384",
          "miles_per_hour" : "40282.3238555353"
        },
        "miss_distance" : {
          "astronomical" : "0.3524096129",
          "lunar" : "137.0873413086",
          "kilometers" : "52719728",
          "miles" : "32758520"
        },
        "orbiting_body" : "Earth"
      } ],
      "orbital_data" : {
        "orbit_id" : "9",
        "orbit_determination_date" : "2017-04-06 09:15:16",
        "orbit_uncertainty" : "7",
        "minimum_orbit_intersection" : ".00155558",
        "jupiter_tisserand_invariant" : "7.471",
        "epoch_osculation" : "2458000.5",
        "eccentricity" : ".3751314373789389",
        "semi_major_axis" : ".7685044424731997",
        "inclination" : "10.61402197650685",
        "ascending_node_longitude" : "189.4290073641288",
        "orbital_period" : "246.0752870602644",
        "perihelion_distance" : ".4802142663361282",
        "perihelion_argument" : "206.3336353841463",
        "aphelion_distance" : "1.056794618610271",
        "perihelion_time" : "2457934.763187911001",
        "mean_anomaly" : "96.17078023053993",
        "mean_motion" : "1.462966900499176",
        "equinox" : "J2000"
      }
    }, {
      "links" : {
        "self" : "https://api.nasa.gov/neo/rest/v1/neo/3741442?api_key=t0TVs3DtDT2H8Oy2Zy8m2eVrNsAVKAexjcZXUckd"
      },
      "neo_reference_id" : "3741442",
      "name" : "(2016 CA29)",
      "nasa_jpl_url" : "http://ssd.jpl.nasa.gov/sbdb.cgi?sstr=3741442",
      "absolute_magnitude_h" : 28.7,
      "estimated_diameter" : {
        "kilometers" : {
          "estimated_diameter_min" : 0.0048367649,
          "estimated_diameter_max" : 0.0108153351
        },
        "meters" : {
          "estimated_diameter_min" : 4.8367648822,
          "estimated_diameter_max" : 10.8153350678
        },
        "miles" : {
          "estimated_diameter_min" : 0.0030054254,
          "estimated_diameter_max" : 0.0067203356
        },
        "feet" : {
          "estimated_diameter_min" : 15.8686516961,
          "estimated_diameter_max" : 35.4833839037
        }
      },
      "is_potentially_hazardous_asteroid" : false,
      "close_approach_data" : [ {
        "close_approach_date" : "1996-05-15",
        "epoch_date_close_approach" : 832143600000,
        "relative_velocity" : {
          "kilometers_per_second" : "10.8973521068",
          "kilometers_per_hour" : "39230.4675846366",
          "miles_per_hour" : "24376.2869277982"
        },
        "miss_distance" : {
          "astronomical" : "0.1492280411",
          "lunar" : "58.0497055054",
          "kilometers" : "22324196",
          "miles" : "13871613"
        },
        "orbiting_body" : "Earth"
      } ],
      "orbital_data" : {
        "orbit_id" : "8",
        "orbit_determination_date" : "2017-04-06 08:28:44",
        "orbit_uncertainty" : "6",
        "minimum_orbit_intersection" : ".00486768",
        "jupiter_tisserand_invariant" : "4.715",
        "epoch_osculation" : "2458000.5",
        "eccentricity" : ".3263517577639763",
        "semi_major_axis" : "1.392104325190958",
        "inclination" : "2.468369943066141",
        "ascending_node_longitude" : "132.6540359448492",
        "orbital_period" : "599.9376271624809",
        "perihelion_distance" : ".9377886316740545",
        "perihelion_argument" : "43.14887031632116",
        "aphelion_distance" : "1.846420018707861",
        "perihelion_time" : "2458057.169793747484",
        "mean_anomaly" : "325.9945887281894",
        "mean_motion" : ".6000623793221446",
        "equinox" : "J2000"
      }
    } ]
  }
}